[{"OBJECT_NAME":"STARLINK-35711","OBJECT_ID":"2025-270H","EPOCH":"2026-03-09T00:14:44.671200","MEAN_MOTION":15.27572787,"ECCENTRICITY":6.019e-5,"INCLINATION":42.9996,"RA_OF_ASC_NODE":59.8664,"ARG_OF_PERICENTER":229.3637,"MEAN_ANOMALY":130.7162,"EPHEMERIS_TYPE":0,"CLASSIFICATION_TYPE":"U","NORAD_CAT_ID":66595,"ELEMENT_SET_NO":999,"REV_AT_EPOCH":1771,"BSTAR":0.0011083029,"MEAN_MOTION_DOT":0.00030355,"MEAN_MOTION_DDOT":0},{"OBJECT_NAME":"OBJECT N","OBJECT_ID":"2019-093N","EPOCH":"2026-03-09T21:41:56.087232","MEAN_MOTION":15.29897693,"ECCENTRICITY":0.0006278,"INCLINATION":98.0505,"RA_OF_ASC_NODE":226.9456,"ARG_OF_PERICENTER":33.3806,"MEAN_ANOMALY":326.7828,"EPHEMERIS_TYPE":0,"CLASSIFICATION_TYPE":"U","NORAD_CAT_ID":44891,"ELEMENT_SET_NO":999,"REV_AT_EPOCH":33957,"BSTAR":0.0010567776,"MEAN_MOTION_DOT":0.00030617,"MEAN_MOTION_DDOT":0}]
